[{"OBJECT_NAME":"STARLINK-32544","OBJECT_ID":"2024-207F","EPOCH":"2026-03-09T22:50:03.132960","MEAN_MOTION":15.27604471,"ECCENTRICITY":0.00012267,"INCLINATION":43.0027,"RA_OF_ASC_NODE":280.129,"ARG_OF_PERICENTER":305.5012,"MEAN_ANOMALY":54.5725,"EPHEMERIS_TYPE":0,"CLASSIFICATION_TYPE":"U","NORAD_CAT_ID":61917,"ELEMENT_SET_NO":999,"REV_AT_EPOCH":7476,"BSTAR":0.0015001223,"MEAN_MOTION_DOT":0.0004128,"MEAN_MOTION_DDOT":0},{"OBJECT_NAME":"CZ-6A DEB","OBJECT_ID":"2023-168D","EPOCH":"2026-03-09T19:03:52.964928","MEAN_MOTION":15.28240044,"ECCENTRICITY":0.00013417,"INCLINATION":97.7802,"RA_OF_ASC_NODE":98.3362,"ARG_OF_PERICENTER":174.0661,"MEAN_ANOMALY":186.0594,"EPHEMERIS_TYPE":0,"CLASSIFICATION_TYPE":"U","NORAD_CAT_ID":58202,"ELEMENT_SET_NO":999,"REV_AT_EPOCH":12922,"BSTAR":0.0014474773,"MEAN_MOTION_DOT":0.00039923,"MEAN_MOTION_DDOT":0}]
